GLOBALSTAR M004 [-]     
1 25163U 98008B   23320.35324920 -.00000081  00000+0  12464-3 0  9999
2 25163  52.0017  19.9642 0003422  89.5611 350.1516 12.63342176188526
GLOBALSTAR M002 [-]     
1 25164U 98008C   23320.16819719 -.00000062  00000+0  28428-3 0  9990
2 25164  52.0013 251.9806 0001262 126.5006 233.5931 11.61497148116784
GLOBALSTAR M003 [-]     
1 25165U 98008D   23320.45897948  .00000025  00000+0  12215-2 0  9997
2 25165  51.9789 331.4657 0007840 206.7680 301.2468 12.11953273163049
GLOBALSTAR M014 [-]     
1 25306U 98023A   23320.06199587 -.00000058  00000+0  37398-3 0  9999
2 25306  51.9817 187.6456 0001714  50.6207  98.6018 11.65462074123643
GLOBALSTAR M015 [-]     
1 25308U 98023C   23320.30815479 -.00000038  00000+0  80365-3 0  9993
2 25308  51.9825 289.8081 0012368 123.6339  24.9096 11.48858063127546
